{"type": "FeatureCollection", "features": [ {"type": "Feature", "properties": {"norad_id": 34375, "name": "IRIDIUM 33 DEB", "group": "iridium-33-debris", "lat": 39.149684641241414, "lon": 1.1643257368700466, "alt_km": 755.1019805537308, "timestamp": "2025-12-09T07:41:33.595647+00:00", "meta": {"OBJECT_NAME": "IRIDIUM 33 DEB", "OBJECT_ID": "1997-051FT", "EPOCH": "2025-12-08T14:22:11.917920", "MEAN_MOTION": 14.17981897, "ECCENTRICITY": 0.0103, "INCLINATION": 86.4327, "RA_OF_ASC_NODE": 184.3663, "ARG_OF_PERICENTER": 139.7555, "MEAN_ANOMALY": 278.6554, "EPHEMERIS_TYPE": 0, "CLASSIFICATION_TYPE": "U", "NORAD_CAT_ID": 34375, "ELEMENT_SET_NO": 999, "REV_AT_EPOCH": 86653, "BSTAR": 0.00071558, "MEAN_MOTION_DOT": 1.562e-05, "MEAN_MOTION_DDOT": 0}, "tle": {"line1": "1 34375U 97051FT  25342.59874905  .00001562  00000+0  71558-3 0  9999", "line2": "2 34375  86.4327 184.3663 0103000 139.7555 278.6554 14.17981897866534"}}, "geometry": {"type": "Point", "coordinates": [1.1643257368700466, 39.149684641241414]}}, {"type": "Feature", "properties": {"norad_id": 34376, "name": "IRIDIUM 33 DEB", "group": "iridium-33-debris", "lat": -34.37706979592183, "lon": 5.538241682817891, "alt_km": 707.3343130360254, "timestamp": "2025-12-09T07:41:33.595659+00:00", "meta": {"OBJECT_NAME": "IRIDIUM 33 DEB", "OBJECT_ID": "1997-051FU", "EPOCH": "2025-12-08T12:08:43.156320", "MEAN_MOTION": 14.62473934, "ECCENTRICITY": 0.00266769, "INCLINATION": 86.2983, "RA_OF_ASC_NODE": 8.4427, "ARG_OF_PERICENTER": 181.0135, "MEAN_ANOMALY": 179.1027, "EPHEMERIS_TYPE": 0, "CLASSIFICATION_TYPE": "U", "NORAD_CAT_ID": 34376, "ELEMENT_SET_NO": 999, "REV_AT_EPOCH": 87945, "BSTAR": 0.0017835286, "MEAN_MOTION_DOT": 9.105e-05, "MEAN_MOTION_DDOT": 0}, "tle": {"line1": "1 34376U 97051FU  25342.50605505  .00009105  00000+0  17835-2 0  9997", "line2": "2 34376  86.2983   8.4427 0026676 181.0135 179.1027 14.62473934879455"}}, "geometry": {"type": "Point", "coordinates": [5.538241682817891, -34.37706979592183]}}, {"type": "Feature", "properties": {"norad_id": 34486, "name": "IRIDIUM 33 DEB", "group": "iridium-33-debris", "lat": 45.08012675121283, "lon": -170.02301646934353, "alt_km": 567.806444350721, "timestamp": "2025-12-09T07:41:33.595670+00:00", "meta": {"OBJECT_NAME": "IRIDIUM 33 DEB", "OBJECT_ID": "1997-051GB", "EPOCH": "2025-12-08T20:37:16.638240", "MEAN_MOTION": 14.95523221, "ECCENTRICITY": 0.00133479, "INCLINATION": 86.3939, "RA_OF_ASC_NODE": 13.8156, "ARG_OF_PERICENTER": 124.9718, "MEAN_ANOMALY": 47.7337, "EPHEMERIS_TYPE": 0, "CLASSIFICATION_TYPE": "U", "NORAD_CAT_ID": 34486, "ELEMENT_SET_NO": 999, "REV_AT_EPOCH": 88928, "BSTAR": 0.0028483894, "MEAN_MOTION_DOT": 0.00031735, "MEAN_MOTION_DDOT": 0}, "tle": {"line1": "1 34486U 97051GB  25342.85922035  .00031735  00000+0  28484-2 0  9993", "line2": "2 34486  86.3939  13.8156 0013347 124.9718  47.7337 14.95523221889289"}}, "geometry": {"type": "Point", "coordinates": [-170.02301646934353, 45.08012675121283]}}, {"type": "Feature", "properties": {"norad_id": 34487, "name": "IRIDIUM 33 DEB", "group": "iridium-33-debris", "lat": 74.063568541408, "lon": 26.7893059512566, "alt_km": 730.91080181488, "timestamp": "2025-12-09T07:41:33.595682+00:00", "meta": {"OBJECT_NAME": "IRIDIUM 33 DEB", "OBJECT_ID": "1997-051GC", "EPOCH": "2025-12-08T08:07:14.868192", "MEAN_MOTION": 14.43208344, "ECCENTRICITY": 0.00324214, "INCLINATION": 86.3438, "RA_OF_ASC_NODE": 14.2722, "ARG_OF_PERICENTER": 142.2384, "MEAN_ANOMALY": 232.9824, "EPHEMERIS_TYPE": 0, "CLASSIFICATION_TYPE": "U", "NORAD_CAT_ID": 34487, "ELEMENT_SET_NO": 999, "REV_AT_EPOCH": 88185, "BSTAR": 0.00035758899, "MEAN_MOTION_DOT": 1.229e-05, "MEAN_MOTION_DDOT": 0}, "tle": {"line1": "1 34487U 97051GC  25342.33836653  .00001229  00000+0  35759-3 0  9996", "line2": "2 34487  86.3438  14.2722 0032421 142.2384 232.9824 14.43208344881857"}}, "geometry": {"type": "Point", "coordinates": [26.7893059512566, 74.063568541408]}}, {"type": "Feature", "properties": {"norad_id": 34488, "name": "IRIDIUM 33 DEB", "group": "iridium-33-debris", "lat": 71.02789251441719, "lon": -41.71859218586523, "alt_km": 465.2140828728916, "timestamp": "2025-12-09T07:41:33.595693+00:00", "meta": {"OBJECT_NAME": "IRIDIUM 33 DEB", "OBJECT_ID": "1997-051GD", "EPOCH": "2025-12-08T21:57:07.267680", "MEAN_MOTION": 15.27997887, "ECCENTRICITY": 0.00143522, "INCLINATION": 86.3246, "RA_OF_ASC_NODE": 307.7053, "ARG_OF_PERICENTER": 57.4212, "MEAN_ANOMALY": 302.8418, "EPHEMERIS_TYPE": 0, "CLASSIFICATION_TYPE": "U", "NORAD_CAT_ID": 34488, "ELEMENT_SET_NO": 999, "REV_AT_EPOCH": 89181, "BSTAR": 0.0052155248, "MEAN_MOTION_DOT": 0.00145336, "MEAN_MOTION_DDOT": 0}, "tle": {"line1": "1 34488U 97051GD  25342.91466745  .00145336  00000+0  52155-2 0  9998", "line2": "2 34488  86.3246 307.7053 0014352  57.4212 302.8418 15.27997887891815"}}, "geometry": {"type": "Point", "coordinates": [-41.71859218586523, 71.02789251441719]}}, {"type": "Feature", "properties": {"norad_id": 34492, "name": "IRIDIUM 33 DEB", "group": "iridium-33-debris", "lat": 21.866195287289155, "lon": -22.57094517259251, "alt_km": 897.2010521688226, "timestamp": "2025-12-09T07:41:33.595703+00:00", "meta": {"OBJECT_NAME": "IRIDIUM 33 DEB", "OBJECT_ID": "1997-051GH", "EPOCH": "2025-12-07T23:50:44.784960", "MEAN_MOTION": 14.25534668, "ECCENTRICITY": 0.0189621, "INCLINATION": 86.4724, "RA_OF_ASC_NODE": 336.5463, "ARG_OF_PERICENTER": 253.6464, "MEAN_ANOMALY": 161.0806, "EPHEMERIS_TYPE": 0, "CLASSIFICATION_TYPE": "U", "NORAD_CAT_ID": 34492, "ELEMENT_SET_NO": 999, "REV_AT_EPOCH": 84991, "BSTAR": 0.0068533726, "MEAN_MOTION_DOT": 0.00019616, "MEAN_MOTION_DDOT": 0}, "tle": {"line1": "1 34492U 97051GH  25341.99357390  .00019616  00000+0  68534-2 0  9994", "line2": "2 34492  86.4724 336.5463 0189621 253.6464 161.0806 14.25534668849919"}}, "geometry": {"type": "Point", "coordinates": [-22.57094517259251, 21.866195287289155]}}, {"type": "Feature", "properties": {"norad_id": 34497, "name": "IRIDIUM 33 DEB", "group": "iridium-33-debris", "lat": -55.82156046692158, "lon": -120.63676224298842, "alt_km": 830.9612769855403, "timestamp": "2025-12-09T07:41:33.595713+00:00", "meta": {"OBJECT_NAME": "IRIDIUM 33 DEB", "OBJECT_ID": "1997-051GN", "EPOCH": "2025-12-08T05:36:30.454848", "MEAN_MOTION": 14.27433857, "ECCENTRICITY": 0.00792669, "INCLINATION": 86.2781, "RA_OF_ASC_NODE": 54.3266, "ARG_OF_PERICENTER": 354.2573, "MEAN_ANOMALY": 60.9681, "EPHEMERIS_TYPE": 0, "CLASSIFICATION_TYPE": "U", "NORAD_CAT_ID": 34497, "ELEMENT_SET_NO": 999, "REV_AT_EPOCH": 86819, "BSTAR": 0.00099948943, "MEAN_MOTION_DOT": 2.553e-05, "MEAN_MOTION_DDOT": 0}, "tle": {"line1": "1 34497U 97051GN  25342.23368582  .00002553  00000+0  99949-3 0  9999", "line2": "2 34497  86.2781  54.3266 0079266 354.2573  60.9681 14.27433857868192"}}, "geometry": {"type": "Point", "coordinates": [-120.63676224298842, -55.82156046692158]}}, {"type": "Feature", "properties": {"norad_id": 34508, "name": "IRIDIUM 33 DEB", "group": "iridium-33-debris", "lat": -80.18601329133564, "lon": -54.3795615177417, "alt_km": 760.3560914720574, "timestamp": "2025-12-09T07:41:33.595724+00:00", "meta": {"OBJECT_NAME": "IRIDIUM 33 DEB", "OBJECT_ID": "1997-051GZ", "EPOCH": "2025-12-08T20:28:07.821120", "MEAN_MOTION": 14.38371181, "ECCENTRICITY": 0.00658648, "INCLINATION": 86.3703, "RA_OF_ASC_NODE": 104.2908, "ARG_OF_PERICENTER": 185.485, "MEAN_ANOMALY": 174.5635, "EPHEMERIS_TYPE": 0, "CLASSIFICATION_TYPE": "U", "NORAD_CAT_ID": 34508, "ELEMENT_SET_NO": 999, "REV_AT_EPOCH": 87253, "BSTAR": 0.0019764098, "MEAN_MOTION_DOT": 6.195e-05, "MEAN_MOTION_DDOT": 0}, "tle": {"line1": "1 34508U 97051GZ  25342.85286830  .00006195  00000+0  19764-2 0  9997", "line2": "2 34508  86.3703 104.2908 0065864 185.4850 174.5635 14.38371181872536"}}, "geometry": {"type": "Point", "coordinates": [-54.3795615177417, -80.18601329133564]}}, {"type": "Feature", "properties": {"norad_id": 34521, "name": "IRIDIUM 33 DEB", "group": "iridium-33-debris", "lat": 48.44882101574633, "lon": -152.04264584778727, "alt_km": 678.5125419703272, "timestamp": "2025-12-09T07:41:33.595734+00:00", "meta": {"OBJECT_NAME": "IRIDIUM 33 DEB", "OBJECT_ID": "1997-051HN", "EPOCH": "2025-12-08T14:40:57.220032", "MEAN_MOTION": 14.63311366, "ECCENTRICITY": 0.0001172, "INCLINATION": 86.3799, "RA_OF_ASC_NODE": 32.3653, "ARG_OF_PERICENTER": 244.4275, "MEAN_ANOMALY": 115.6816, "EPHEMERIS_TYPE": 0, "CLASSIFICATION_TYPE": "U", "NORAD_CAT_ID": 34521, "ELEMENT_SET_NO": 999, "REV_AT_EPOCH": 88412, "BSTAR": 0.0013532, "MEAN_MOTION_DOT": 7.004e-05, "MEAN_MOTION_DDOT": 0}, "tle": {"line1": "1 34521U 97051HN  25342.61177338  .00007004  00000+0  13532-2 0  9995", "line2": "2 34521  86.3799  32.3653 0001172 244.4275 115.6816 14.63311366884125"}}, "geometry": {"type": "Point", "coordinates": [-152.04264584778727, 48.44882101574633]}}, {"type": "Feature", "properties": {"norad_id": 34525, "name": "IRIDIUM 33 DEB", "group": "iridium-33-debris", "lat": -21.804798770692024, "lon": -130.24269897685966, "alt_km": 755.1484331733172, "timestamp": "2025-12-09T07:41:33.595744+00:00", "meta": {"OBJECT_NAME": "IRIDIUM 33 DEB", "OBJECT_ID": "1997-051HS", "EPOCH": "2025-12-08T10:52:50.630592", "MEAN_MOTION": 14.42890463, "ECCENTRICITY": 0.00066346, "INCLINATION": 86.373, "RA_OF_ASC_NODE": 48.6732, "ARG_OF_PERICENTER": 105.0702, "MEAN_ANOMALY": 275.0516, "EPHEMERIS_TYPE": 0, "CLASSIFICATION_TYPE": "U", "NORAD_CAT_ID": 34525, "ELEMENT_SET_NO": 999, "REV_AT_EPOCH": 88026, "BSTAR": 0.00067150553, "MEAN_MOTION_DOT": 2.262e-05, "MEAN_MOTION_DDOT": 0}, "tle": {"line1": "1 34525U 97051HS  25342.45336378  .00002262  00000+0  67151-3 0  9990", "line2": "2 34525  86.3730  48.6732 0006634 105.0702 275.0516 14.42890463880263"}}, "geometry": {"type": "Point", "coordinates": [-130.24269897685966, -21.804798770692024]}}]}